[
    {
        "Altitude(m)": 607895.8579290616,
        "Argument of Periapsis(deg)": 0.0,
        "Eccentricity": 0.0,
        "Inclination(deg)": 60.0,
        "Latitude(deg)": 40.99844941205713,
        "Longitude(deg)": 85.08863130944661,
        "Mean Anomaly(deg)": 130.9091,
        "RAAN(deg)": 35.0,
        "Satellite Name": "Test1 162",
        "Satellite Number": 162,
        "Semi-Major Axis(m)": 6980739.136638005,
        "Time(s)": 0
    },
    {
        "Altitude(m)": 607795.170724205,
        "Argument of Periapsis(deg)": 0.00010418945913296404,
        "Eccentricity": 0.0,
        "Inclination(deg)": 60.0,
        "Latitude(deg)": 40.53077382100042,
        "Longitude(deg)": 85.58522618680338,
        "Mean Anomaly(deg)": 131.5292061454618,
        "RAAN(deg)": 34.99957995086025,
        "Satellite Name": "Test1 162",
        "Satellite Number": 162,
        "Semi-Major Axis(m)": 6980739.136638005,
        "Time(s)": 10
    }
]